{
  "type": "FeatureCollection",
  "features": [
    {
      "type": "Feature",
      "properties": {
        "norad_id": 32275,
        "name": "COSMOS 2433 (720)",
        "group": "glo-ops",
        "lat": -22.134274497770875,
        "lon": -48.078517759413096,
        "alt_km": 19131.35075009685,
        "timestamp": "2025-12-03T04:52:29.897984+00:00",
        "meta_object_name": "COSMOS 2433 (720)",
        "meta_object_id": "2007-052A",
        "meta_epoch": "2025-12-02T07:06:53.876160",
        "meta_mean_motion": 2.13103912,
        "meta_eccentricity": 0.00055743,
        "meta_inclination": 65.6888,
        "meta_ra_of_asc_node": 322.5567,
        "meta_arg_of_pericenter": 252.1881,
        "meta_mean_anomaly": 107.7615,
        "meta_ephemeris_type": 0,
        "meta_classification_type": "U",
        "meta_norad_cat_id": 32275,
        "meta_element_set_no": 999,
        "meta_rev_at_epoch": 14086,
        "meta_bstar": 0,
        "meta_mean_motion_dot": -3.2e-07,
        "meta_mean_motion_ddot": 0,
        "tle_line1": "1 32275U 07052A   25336.29645690 -.00000032  00000+0  00000+0 0  9997",
        "tle_line2": "2 32275  65.6888 322.5567 0005574 252.1881 107.7615  2.13103912140868"
      },
      "geometry": {
        "type": "Point",
        "coordinates": [
          -48.078517759413096,
          -22.134274497770875
        ]
      }
    },
    {
      "type": "Feature",
      "properties": {
        "norad_id": 32276,
        "name": "COSMOS 2432 (719)",
        "group": "glo-ops",
        "lat": -63.83875901652357,
        "lon": -104.25456722998533,
        "alt_km": 19111.853016870606,
        "timestamp": "2025-12-03T04:52:29.898007+00:00",
        "meta_object_name": "COSMOS 2432 (719)",
        "meta_object_id": "2007-052B",
        "meta_epoch": "2025-12-01T01:47:57.960960",
        "meta_mean_motion": 2.13103067,
        "meta_eccentricity": 0.00112256,
        "meta_inclination": 65.7054,
        "meta_ra_of_asc_node": 322.7218,
        "meta_arg_of_pericenter": 311.1678,
        "meta_mean_anomaly": 136.2023,
        "meta_ephemeris_type": 0,
        "meta_classification_type": "U",
        "meta_norad_cat_id": 32276,
        "meta_element_set_no": 999,
        "meta_rev_at_epoch": 14086,
        "meta_bstar": 0,
        "meta_mean_motion_dot": -2.4e-07,
        "meta_mean_motion_ddot": 0,
        "tle_line1": "1 32276U 07052B   25335.07497640 -.00000024  00000+0  00000+0 0  9994",
        "tle_line2": "2 32276  65.7054 322.7218 0011225 311.1678 136.2023  2.13103067140861"
      },
      "geometry": {
        "type": "Point",
        "coordinates": [
          -104.25456722998533,
          -63.83875901652357
        ]
      }
    },
    {
      "type": "Feature",
      "properties": {
        "norad_id": 32393,
        "name": "COSMOS 2434 (721)",
        "group": "glo-ops",
        "lat": -40.539305164255175,
        "lon": 42.82339172266825,
        "alt_km": 19145.061551119714,
        "timestamp": "2025-12-03T04:52:29.898021+00:00",
        "meta_object_name": "COSMOS 2434 (721)",
        "meta_object_id": "2007-065A",
        "meta_epoch": "2025-12-01T06:30:38.524608",
        "meta_mean_motion": 2.13101181,
        "meta_eccentricity": 0.00043375,
        "meta_inclination": 64.3147,
        "meta_ra_of_asc_node": 198.5905,
        "meta_arg_of_pericenter": 70.7489,
        "meta_mean_anomaly": 113.3938,
        "meta_ephemeris_type": 0,
        "meta_classification_type": "U",
        "meta_norad_cat_id": 32393,
        "meta_element_set_no": 999,
        "meta_rev_at_epoch": 13955,
        "meta_bstar": 0,
        "meta_mean_motion_dot": 1.02e-06,
        "meta_mean_motion_ddot": 0,
        "tle_line1": "1 32393U 07065A   25335.27127922  .00000102  00000+0  00000+0 0  9999",
        "tle_line2": "2 32393  64.3147 198.5905 0004337  70.7489 113.3938  2.13101181139555"
      },
      "geometry": {
        "type": "Point",
        "coordinates": [
          42.82339172266825,
          -40.539305164255175
        ]
      }
    },
    {
      "type": "Feature",
      "properties": {
        "norad_id": 32395,
        "name": "COSMOS 2436 (723)",
        "group": "glo-ops",
        "lat": -0.7467905957544294,
        "lon": -161.76156491954941,
        "alt_km": 19086.10215634872,
        "timestamp": "2025-12-03T04:52:29.898035+00:00",
        "meta_object_name": "COSMOS 2436 (723)",
        "meta_object_id": "2007-065C",
        "meta_epoch": "2025-12-01T01:03:25.836192",
        "meta_mean_motion": 2.13099978,
        "meta_eccentricity": 0.00177119,
        "meta_inclination": 64.3233,
        "meta_ra_of_asc_node": 198.6683,
        "meta_arg_of_pericenter": 8.6583,
        "meta_mean_anomaly": 134.2889,
        "meta_ephemeris_type": 0,
        "meta_classification_type": "U",
        "meta_norad_cat_id": 32395,
        "meta_element_set_no": 999,
        "meta_rev_at_epoch": 13950,
        "meta_bstar": 0,
        "meta_mean_motion_dot": 1e-06,
        "meta_mean_motion_ddot": 0,
        "tle_line1": "1 32395U 07065C   25335.04404903  .00000100  00000+0  00000+0 0  9991",
        "tle_line2": "2 32395  64.3233 198.6683 0017711   8.6583 134.2889  2.13099978139504"
      },
      "geometry": {
        "type": "Point",
        "coordinates": [
          -161.76156491954941,
          -0.7467905957544294
        ]
      }
    },
    {
      "type": "Feature",
      "properties": {
        "norad_id": 36111,
        "name": "COSMOS 2456 (730)",
        "group": "glo-ops",
        "lat": 20.940042894302085,
        "lon": 87.98332289483196,
        "alt_km": 19126.905771454374,
        "timestamp": "2025-12-03T04:52:29.898048+00:00",
        "meta_object_name": "COSMOS 2456 (730)",
        "meta_object_id": "2009-070A",
        "meta_epoch": "2025-12-01T00:19:15.904128",
        "meta_mean_motion": 2.13103433,
        "meta_eccentricity": 0.00027486,
        "meta_inclination": 64.8936,
        "meta_ra_of_asc_node": 77.7389,
        "meta_arg_of_pericenter": 298.5027,
        "meta_mean_anomaly": 204.7984,
        "meta_ephemeris_type": 0,
        "meta_classification_type": "U",
        "meta_norad_cat_id": 36111,
        "meta_element_set_no": 999,
        "meta_rev_at_epoch": 12420,
        "meta_bstar": 0,
        "meta_mean_motion_dot": -1.4e-07,
        "meta_mean_motion_ddot": 0,
        "tle_line1": "1 36111U 09070A   25335.01337852 -.00000014  00000+0  00000+0 0  9999",
        "tle_line2": "2 36111  64.8936  77.7389 0002748 298.5027 204.7984  2.13103433124208"
      },
      "geometry": {
        "type": "Point",
        "coordinates": [
          87.98332289483196,
          20.940042894302085
        ]
      }
    },
    {
      "type": "Feature",
      "properties": {
        "norad_id": 36112,
        "name": "COSMOS 2457 (733)",
        "group": "glo-ops",
        "lat": 24.722495610141582,
        "lon": -114.94367158910354,
        "alt_km": 19114.608089853064,
        "timestamp": "2025-12-03T04:52:29.898060+00:00",
        "meta_object_name": "COSMOS 2457 (733)",
        "meta_object_id": "2009-070B",
        "meta_epoch": "2025-12-01T04:17:17.576160",
        "meta_mean_motion": 2.13100803,
        "meta_eccentricity": 0.00049655,
        "meta_inclination": 64.8788,
        "meta_ra_of_asc_node": 77.581,
        "meta_arg_of_pericenter": 155.592,
        "meta_mean_anomaly": 243.7721,
        "meta_ephemeris_type": 0,
        "meta_classification_type": "U",
        "meta_norad_cat_id": 36112,
        "meta_element_set_no": 999,
        "meta_rev_at_epoch": 12421,
        "meta_bstar": 0,
        "meta_mean_motion_dot": -1.5e-07,
        "meta_mean_motion_ddot": 0,
        "tle_line1": "1 36112U 09070B   25335.17867565 -.00000015  00000+0  00000+0 0  9997",
        "tle_line2": "2 36112  64.8788  77.5810 0004965 155.5920 243.7721  2.13100803124219"
      },
      "geometry": {
        "type": "Point",
        "coordinates": [
          -114.94367158910354,
          24.722495610141582
        ]
      }
    },
    {
      "type": "Feature",
      "properties": {
        "norad_id": 36402,
        "name": "COSMOS 2460 (732)",
        "group": "glo-ops",
        "lat": 25.47533528863258,
        "lon": 128.557680631021,
        "alt_km": 19130.141747488782,
        "timestamp": "2025-12-03T04:52:29.898072+00:00",
        "meta_object_name": "COSMOS 2460 (732)",
        "meta_object_id": "2010-007C",
        "meta_epoch": "2025-12-01T05:49:09.827040",
        "meta_mean_motion": 2.13106053,
        "meta_eccentricity": 0.00028009,
        "meta_inclination": 65.536,
        "meta_ra_of_asc_node": 321.162,
        "meta_arg_of_pericenter": 269.9918,
        "meta_mean_anomaly": 177.6167,
        "meta_ephemeris_type": 0,
        "meta_classification_type": "U",
        "meta_norad_cat_id": 36402,
        "meta_element_set_no": 999,
        "meta_rev_at_epoch": 12251,
        "meta_bstar": 0,
        "meta_mean_motion_dot": -2.6e-07,
        "meta_mean_motion_ddot": 0,
        "tle_line1": "1 36402U 10007C   25335.24247485 -.00000026  00000+0  00000+0 0  9994",
        "tle_line2": "2 36402  65.5360 321.1620 0002800 269.9918 177.6167  2.13106053122518"
      },
      "geometry": {
        "type": "Point",
        "coordinates": [
          128.557680631021,
          25.47533528863258
        ]
      }
    }
  ]
}